FLOCK 4P-5              
1 44818U 19081Q   22364.72251573  .00017498  00000+0  53505-3 0  9992
2 44818  97.3786  69.1290 0006296 229.4511 130.6184 15.33902681171933
SKYSAT-C14              
1 45788U 20038BL  22364.72030711  .00040916  00000+0  57756-3 0  9995
2 45788  52.9898  89.0857 0008312 293.2160  66.7974 15.56155666145295
SKYSAT-C16              
1 45789U 20038BM  22364.54476065  .00038492  00000+0  53962-3 0  9993
2 45789  52.9908  89.4926 0012579 302.8096  57.1702 15.56319725145262
SKYSAT-C15              
1 45790U 20038BN  22364.51699760  .00038165  00000+0  54137-3 0  9993
2 45790  52.9884  89.9024 0008571 294.9826  65.0293 15.56053483145258
SKYSAT-C17              
1 46179U 20057BQ  22364.74262672  .00041586  00000+0  48859-3 0  9994
2 46179  52.9873 181.2937 0007499 317.1908  42.8519 15.61031426134569
SKYSAT-C18              
1 46180U 20057BR  22365.22160886  .00049860  00000+0  52396-3 0  9998
2 46180  52.9821 178.1121 0006058   1.4448 358.6581 15.63835005134683
SKYSAT-C19              
1 46235U 20057BS  22364.52188765  .00038745  00000+0  47623-3 0  9994
2 46235  52.9839 179.5625 0005561 347.8187  12.2689 15.59897180134603
FLOCK 4V-11             
1 46285U 20061P   22365.14919954  .00012319  00000+0  60504-3 0  9997
2 46285  97.4270  71.3673 0002386 312.3443  47.7589 15.18205471128298
FLOCK 4V-14             
1 46286U 20061Q   22365.47058257  .00012388  00000+0  60899-3 0  9997
2 46286  97.4270  71.7096 0001840 302.9010  57.2047 15.18172311128348
FLOCK 4V-8              
1 46288U 20061S   22364.47369477  .00024216  00000+0  11856-2 0  9998
2 46288  97.4269  70.7231 0001735 342.5994  17.5180 15.18167569128102
FLOCK 4V-6              
1 46289U 20061T   22365.45534748  .00010508  00000+0  52023-3 0  9994
2 46289  97.4292  71.7558 0001611  27.8538 332.2782 15.17965660128340
FLOCK 4V-5              
1 46290U 20061U   22365.56146434  .00006630  00000+0  35961-3 0  9992
2 46290  97.4282  71.1269 0001687 348.6602  11.4592 15.14888202128318
FLOCK 4V-7              
1 46291U 20061V   22365.49532944  .00008926  00000+0  44059-3 0  9998
2 46291  97.4276  71.8332 0001274 340.9730  19.1456 15.18117140128245
FLOCK 4V-10             
1 46296U 20061AA  22364.98531174  .00029793  00000+0  14587-2 0  9997
2 46296  97.4282  71.4952 0001053 103.1920 256.9431 15.18121336128242
FLOCK 4V-13             
1 46297U 20061AB  22365.17499817  .00023919  00000+0  11702-2 0  9997
2 46297  97.4281  71.7013 0000954 102.2055 257.9286 15.18195106128257
FLOCK 4V-1              
1 46313U 20061AT  22365.15886804  .00010451  00000+0  51450-3 0  9992
2 46313  97.4286  72.0510 0002073 185.5012 174.6200 15.18165026128280
FLOCK 4V-4              
1 46314U 20061AU  22365.19165347  .00014348  00000+0  70606-3 0  9992
2 46314  97.4201  71.9953 0002593 199.3049 160.8962 15.18100554128330
FLOCK 4V-2              
1 46321U 20061BB  22364.72190614  .00019415  00000+0  89343-3 0  9991
2 46321  97.4292  72.4763 0002422 185.0880 175.0331 15.20362551128203
FLOCK 4V-16             
1 46527U 20061BD  22365.43558843  .00024735  00000+0  94676-3 0  9996
2 46527  97.3787  73.4061 0006665 138.0231 222.1520 15.26531087124862
FLOCK 4V-15             
1 46528U 20061BE  22364.72500666  .00025264  00000+0  97287-3 0  9997
2 46528  97.3763  73.1062 0002992 151.8357 208.3044 15.26340864125146
FLOCK 4V-17             
1 46529U 20061BF  22365.14976856  .00036664  00000+0  14001-2 0  9991
2 46529  97.3733  73.1348 0003059 135.8261 224.3223 15.26539592124405
FLOCK 4V-18             
1 46597U 20061BG  22365.25888681  .00012958  00000+0  50396-3 0  9994
2 46597  97.3839  73.9390 0006750 145.2802 214.8878 15.26138681123783
FLOCK 4V-19             
1 46609U 20061BH  22364.43584388  .00036332  00000+0  13904-2 0  9999
2 46609  97.3709  72.2337 0003514 123.4530 236.7045 15.26468970123222
FLOCK 4V-20             
1 46612U 20061BJ  22364.74194695  .00012660  00000+0  52913-3 0  9997
2 46612  97.3835  72.9618 0007062 153.7161 206.4435 15.23724876122743
FLOCK 4V-22             
1 46735U 20061BL  22364.45883094  .00010095  00000+0  40027-3 0  9992
2 46735  97.3672  71.5464 0005898 140.9775 219.1882 15.25561790121568
FLOCK 4V-23             
1 46737U 20061BM  22365.49671177  .00011796  00000+0  47416-3 0  9994
2 46737  97.3737  73.2438 0004949 115.7586 244.4164 15.25066346121659
FLOCK 4V-24             
1 46738U 20061BN  22365.46430397  .00012827  00000+0  50059-3 0  9992
2 46738  97.3852  74.1098 0005521 153.8729 206.3429 15.26031762121228
FLOCK 4V-25             
1 46812U 20061BP  22365.62471424  .00025425  00000+0  97438-3 0  9999
2 46812  97.3747  73.4847 0005884 104.9463 255.2444 15.26487681120899
FLOCK 4E'-1             
1 46813U 20077A   22365.56709050  .00038145  00000+0  14010-2 0  9996
2 46813  97.3968  66.0271 0011089  82.4103 277.8396 15.27767127120500
FLOCK 4E'-7             
1 46814U 20077B   22365.58382068  .00015660  00000+0  57922-3 0  9992
2 46814  97.3972  66.1812 0011859  78.3429 281.9141 15.27715174120518
FLOCK 4E'-9             
1 46815U 20077C   22365.43367394  .00011300  00000+0  48853-3 0  9992
2 46815  97.3953  64.6919 0012250  78.3964 281.8647 15.22558978120421
FLOCK 4E'-8             
1 46816U 20077D   22365.43882584  .00017792  00000+0  59840-3 0  9995
2 46816  97.3986  67.1558 0009342  59.4473 300.7689 15.30821516120559
FLOCK 4E'-5             
1 46817U 20077E   22365.42206769  .00037528  00000+0  13748-2 0  9995
2 46817  97.3996  66.7625 0012973  63.4259 296.8308 15.27834184120523
FLOCK 4E'-3             
1 46819U 20077G   22365.53612137  .00013173  00000+0  48746-3 0  9996
2 46819  97.3969  66.6580 0013465  59.4678 300.7888 15.27720353120543
FLOCK 4E'-2             
1 46820U 20077H   22365.42976605  .00012672  00000+0  48834-3 0  9990
2 46820  97.4033  67.0533 0012997  53.0102 307.2324 15.26393204120527
FLOCK 4E'-4             
1 46821U 20077J   22365.40550941  .00011943  00000+0  49245-3 0  9997
2 46821  97.3996  66.2178 0013950  49.1122 311.1321 15.24130663120458
FLOCK 4E'-6             
1 46822U 20077K   22364.63174384  .00009252  00000+0  39138-3 0  9995
2 46822  97.3958  64.4299 0011984  62.4261 297.8191 15.23356542120346
FLOCK 4V-26             
1 46825U 20061BQ  22365.33793711  .00040095  00000+0  15175-2 0  9994
2 46825  97.3819  73.9349 0004850 165.1539 194.9856 15.26809472120397
FLOCK 4S-22             
1 47452U 21006AR  22365.10599806  .00017798  00000+0  81667-3 0  9999
2 47452  97.4202  60.9027 0008591 317.4876  42.5694 15.20450818107104
FLOCK 4S-21             
1 47456U 21006AV  22365.43902411  .00014735  00000+0  67712-3 0  9992
2 47456  97.4207  61.2892 0008559 316.2568  43.7988 15.20442406107154
FLOCK 4S-11             
1 47462U 21006BB  22364.97121685  .00009135  00000+0  48537-3 0  9995
2 47462  97.4158  58.3353 0007390 349.9829  10.1255 15.15496188106941
FLOCK 4S-33             
1 47469U 21006BJ  22365.40161707  .00008633  00000+0  39922-3 0  9990
2 47469  97.4155  60.4763 0005638 337.1836  22.9148 15.20383475107127
FLOCK 4S-12             
1 47471U 21006BL  22364.73713224  .00027595  00000+0  12721-2 0  9990
2 47471  97.4191  60.1299 0006431 343.2326  16.8696 15.20212288107027
FLOCK 4S-13             
1 47472U 21006BM  22364.39541404  .00026767  00000+0  12269-2 0  9999
2 47472  97.4213  60.0594 0006281 341.8146  18.2864 15.20416821106972
FLOCK 4S-35             
1 47473U 21006BN  22364.67823078  .00040862  00000+0  16282-2 0  9992
2 47473  97.4181  60.9218 0005101 338.2002  21.9018 15.25087294107066
FLOCK 4S-8              
1 47474U 21006BP  22364.42422543  .00032854  00000+0  15703-2 0  9997
2 47474  97.4141  58.5443 0006681 343.0071  17.0939 15.18921241106923
FLOCK 4S-31             
1 47475U 21006BQ  22364.43863134  .00031043  00000+0  13449-2 0  9998
2 47475  97.4136  59.6050 0005590 338.4780  21.6221 15.22320048106992
FLOCK 4S-34             
1 47477U 21006BS  22365.12644842  .00018452  00000+0  84840-3 0  9993
2 47477  97.4197  60.6259 0005857 338.7081  21.3909 15.20389246107081
FLOCK 4S-9              
1 47478U 21006BT  22365.12691387  .00016104  00000+0  74064-3 0  9999
2 47478  97.4147  60.1070 0006304 343.5014  16.6015 15.20406684107082
FLOCK 4S-32             
1 47479U 21006BU  22364.68753036  .00043509  00000+0  16965-2 0  9994
2 47479  97.4128  60.5291 0004826 337.5824  22.5202 15.25797997107078
FLOCK 4S-39             
1 47490U 21006CF  22365.41834342  .00008376  00000+0  38655-3 0  9993
2 47490  97.4240  61.4707 0007822 323.5643  36.5059 15.20448793107146
FLOCK 4S-4              
1 47491U 21006CG  22365.41360143  .00014152  00000+0  65083-3 0  9991
2 47491  97.4116  60.3840 0007634 319.3662  40.7003 15.20431338107143
FLOCK 4S-17             
1 47492U 21006CH  22364.42356757  .00008659  00000+0  40006-3 0  9991
2 47492  97.4255  60.5738 0007955 326.3078  33.7650 15.20400816106990
FLOCK 4S-3              
1 47494U 21006CK  22364.42921693  .00033918  00000+0  15966-2 0  9992
2 47494  97.4123  58.7548 0008121 322.3285  37.7380 15.19433867106945
FLOCK 4S-27             
1 47495U 21006CL  22365.40365296  .00009226  00000+0  42295-3 0  9994
2 47495  97.4121  60.4633 0008657 318.4391  41.6186 15.20644544107146
FLOCK 4S-18             
1 47496U 21006CM  22364.41982112  .00026452  00000+0  12138-2 0  9999
2 47496  97.4232  60.4507 0008041 325.9440  34.1278 15.20370393106994
FLOCK 4S-2              
1 47498U 21006CP  22364.43093404  .00038742  00000+0  16721-2 0  9997
2 47498  97.4125  59.6850 0007419 319.0428  41.0250 15.22387850107004
FLOCK 4S-40             
1 47499U 21006CQ  22364.43129440  .00017795  00000+0  82325-3 0  9997
2 47499  97.4248  60.4395 0008583 324.9601  35.1069 15.20167087106991
FLOCK 4S-19             
1 47500U 21006CR  22365.39495194  .00012620  00000+0  58137-3 0  9994
2 47500  97.4227  61.4170 0008478 318.3576  41.7013 15.20393442107140
FLOCK 4S-28             
1 47514U 21006DE  22365.15561908  .00009218  00000+0  42497-3 0  9991
2 47514  97.4120  59.9933 0006435 337.2100  22.8849 15.20465020108050
